{
  "norad_id": 59352,
  "name": "STARLINK-31561",
  "history": [
    {
      "epoch": "2026-03-28T13:26:00.646944",
      "apogee_km": 483.23262389201045,
      "perigee_km": 482.90191384625086,
      "latitude_deg": -13.860054119217045,
      "longitude_deg": 168.93405216000974,
      "semi_major_axis_km": 6861.20426886913,
      "eccentricity": 2.41e-05,
      "inclination_deg": 42.9999,
      "raan_deg": 152.8694,
      "arg_perigee_deg": 311.0236,
      "mean_anomaly_deg": 49.0594,
      "mean_motion_rev_day": 15.27573931
    }
  ]
}